HORUS 2                 
1 55844U 23032A   26161.48864017  .00005278  00000+0  22503-3 0  9996
2 55844  97.3536 237.0238 0002181 111.4023 248.7447 15.23355119180460
GLOBAL-19               
1 55982U 23041B   26161.34476971  .00012005  00000+0  32140-3 0  9996
2 55982  42.0013 241.7825 0009910 316.9184  43.0879 15.37867424180873
BRO-9                   
1 56185U 23054H   26160.57610912  .00467986  92685-4  10888-2 0  9996
2 56185  97.2949  78.4371 0006577 143.5914 216.5811 15.97039346177870
ION SCV-010             
1 56192U 23054Q   26161.27555448  .00004078  00000+0  16051-3 0  9997
2 56192  97.3795  50.8647 0011511 223.2939 136.7396 15.26137722175143
TELEOS-2                
1 56310U 23057C   26160.82442745  .00000669  00000+0 -16681-5 0  9991
2 56310   9.9881 257.7953 0000983 263.7139  96.2963 14.96399866171691
SNIPE 4                 
1 56744U 23072B   26161.53096220  .00018505  00000+0  43434-3 0  9992
2 56744  97.5264   7.3267 0005040   5.4822 354.6479 15.42084002169084
SNIPE 2                 
1 56745U 23072C   26161.52831398  .00023083  00000+0  46572-3 0  9998
2 56745  97.5256  10.3223 0004925  37.7300 322.4293 15.46525272169217
2023-072G               
1 56749U 23072G   26161.54465192  .00028785  00000+0  51060-3 0  9991
2 56749  97.4921   9.1347 0003615  30.2678 329.8781 15.50195736169433
GEISAT PRECURSOR        
1 56934U 23084C   26161.50275017  .00006395  00000+0  19345-3 0  9994
2 56934  97.6210 302.2369 0005582  22.6799 337.4689 15.34560656166503
BLACKJACK ACES-3        
1 56950U 23084U   26161.31664532  .00005134  00000+0  25299-3 0  9990
2 56950  97.6198 296.4567 0003101  53.6639 306.4880 15.18402939166120
BLACKJACK ACES-2        
1 56955U 23084Z   26161.32308617  .00006548  00000+0  32056-3 0  9994
2 56955  97.6195 296.5475 0001517  68.7721 291.3674 15.18527212166135
BLACKJACK ACES-1        
1 56956U 23084AA  26161.31122326  .00006622  00000+0  32421-3 0  9994
2 56956  97.6186 296.3096 0001263  98.8534 261.2842 15.18517776115857
ION SCV-011             
1 56957U 23084AB  26161.52114964  .00004796  00000+0  17446-3 0  9997
2 56957  98.1382 348.1837 0008336  65.9915 294.2195 15.28781375164790
GHOST-3                 
1 56958U 23084AC  26161.43980313  .00016382  00000+0  31863-3 0  9990
2 56958  97.6202 309.6512 0005687 322.3309  37.7542 15.47662314166971
TOMORROW-R2             
1 56962U 23084AG  26161.18709690  .00407347  75186-4  71086-3 0  9992
2 56962  97.6021 324.4187 0007439 245.7552 114.2950 16.02124152167939
AFR-1                   
1 56964U 23084AJ  26161.55497992  .00003937  00000+0  14464-3 0  9996
2 56964  97.6260 298.0872 0010559  10.7105 349.4357 15.28499215166219
METEOR-M2 3             
1 57166U 23091A   26161.56407635 -.00000015  00000+0  12330-4 0  9991
2 57166  98.6091 216.6776 0003983 172.7447 187.3791 14.24046205153575
UMKA 1 (RS40S)          
1 57172U 23091G   26161.44834685  .00005816  00000+0  26679-3 0  9997
2 57172  97.5057 220.1716 0013941 138.7609 221.4682 15.20739099162984
2023-091H               
1 57173U 23091H   26161.44029470  .00010593  00000+0  38400-3 0  9999
2 57173  97.5055 224.5780 0011132 133.5400 226.6766 15.28487566163274
2023-091J               
1 57174U 23091J   26161.44656237  .00003110  00000+0  17521-3 0  9995
2 57174  97.5061 214.6391 0013745 164.7817 195.3831 15.13878957162614
CUBEBEL 2 (EU11S)       
1 57175U 23091K   26161.44339863  .00011720  00000+0  41808-3 0  9990
2 57175  97.5058 224.6006 0011142 135.1242 225.0900 15.28987107163273
SITRO-AIS 5 (KATYS)     
1 57176U 23091L   26161.39632978  .00011625  00000+0  41058-3 0  9999
2 57176  97.5066 225.2316 0012744 124.4341 235.8105 15.29298638163309
ZORKIY-2M 1             
1 57177U 23091M   26161.50089068  .00006469  00000+0  29567-3 0  9990
2 57177  97.5097 220.4875 0014551 136.1264 224.1129 15.20814806162985
CUBESX-HSE 3 (RS42S)    
1 57178U 23091N   26161.44246744  .00012311  00000+0  41201-3 0  9992
2 57178  97.5097 226.9450 0012154 115.3998 244.8502 15.31043247163391
MONITOR-3 (RS58S)       
1 57180U 23091Q   26161.45215109  .00010420  00000+0  38660-3 0  9991
2 57180  97.5090 224.8493 0013059 121.5687 238.6829 15.27704917163262
MONITOR-4 (RS57S)       
1 57182U 23091S   26161.49708615  .00008839  00000+0  32754-3 0  9995
2 57182  97.5083 224.8653 0013068 121.8033 238.4481 15.27797175163273
MONITOR-2 (RS39S)       
1 57184U 23091U   26161.46117815  .00004368  00000+0  21259-3 0  9991
2 57184  97.5079 219.7876 0012486 131.7104 228.5200 15.18846682162931
SVYATOBOR 1 (RS60S)     
1 57187U 23091X   26161.43891910  .00008092  00000+0  31231-3 0  9995
2 57187  97.5095 225.2188 0010904 114.6692 245.5683 15.26498870163289
HORS 1                  
1 57188U 23091Y   26161.49046792  .00007609  00000+0  29299-3 0  9996
2 57188  97.5073 225.0340 0010366 114.1508 246.0815 15.26602940163296
VIZARD-METEO (RS38S)    
1 57189U 23091Z   26161.43721741  .00015392  00000+0  44330-3 0  9996
2 57189  97.5096 230.7880 0008613  97.7678 262.4543 15.35809158163650
