OBJECT_NAME,OBJECT_ID,EPOCH,MEAN_MOTION,ECCENTRICITY,INCLINATION,RA_OF_ASC_NODE,ARG_OF_PERICENTER,MEAN_ANOMALY,EPHEMERIS_TYPE,CLASSIFICATION_TYPE,NORAD_CAT_ID,ELEMENT_SET_NO,REV_AT_EPOCH,BSTAR,MEAN_MOTION_DOT,MEAN_MOTION_DDOT
HORUS 2,2023-032A,2026-06-10T11:43:38.510688,15.23355119,.0002181,97.3536,237.0238,111.4023,248.7447,0,U,55844,999,18046,.22503E-3,.5278E-4,0
GLOBAL-19,2023-041B,2026-06-10T08:16:28.102944,15.37867424,.000991,42.0013,241.7825,316.9184,43.0879,0,U,55982,999,18087,.3214E-3,.12005E-3,0
BRO-9,2023-054H,2026-06-09T13:49:35.827968,15.97039346,.00065776,97.2949,78.4371,143.5914,216.5811,0,U,56185,999,17787,.10888484E-2,.467986E-2,.92684865E-4
ION SCV-010,2023-054Q,2026-06-10T06:36:47.907072,15.26137722,.0011511,97.3795,50.8647,223.2939,136.7396,0,U,56192,999,17514,.16051E-3,.4078E-4,0
TELEOS-2,2023-057C,2026-06-09T19:47:10.531680,14.96399866,.00009836,9.9881,257.7953,263.7139,96.2963,0,U,56310,999,17169,-.1668089E-5,.669E-5,0
SNIPE 4,2023-072B,2026-06-10T12:44:35.134080,15.42084002,.000504,97.5264,7.3267,5.4822,354.6479,0,U,56744,999,16908,.43434E-3,.18505E-3,0
SNIPE 2,2023-072C,2026-06-10T12:40:46.327872,15.46525272,.0004925,97.5256,10.3223,37.7300,322.4293,0,U,56745,999,16921,.46572E-3,.23083E-3,0
2023-072G,2023-072G,2026-06-10T13:04:17.925888,15.50195736,.0003615,97.4921,9.1347,30.2678,329.8781,0,U,56749,999,16943,.5106E-3,.28785E-3,0
GEISAT PRECURSOR,2023-084C,2026-06-10T12:03:57.614688,15.34560656,.0005582,97.6210,302.2369,22.6799,337.4689,0,U,56934,999,16650,.19345E-3,.6395E-4,0
BLACKJACK ACES-3,2023-084U,2026-06-10T07:35:58.155648,15.18402939,.0003101,97.6198,296.4567,53.6639,306.4880,0,U,56950,999,16612,.25299E-3,.5134E-4,0
BLACKJACK ACES-2,2023-084Z,2026-06-10T07:45:14.645088,15.18527212,.0001517,97.6195,296.5475,68.7721,291.3674,0,U,56955,999,16613,.32056E-3,.6548E-4,0
BLACKJACK ACES-1,2023-084AA,2026-06-10T07:28:09.689664,15.18517776,.0001263,97.6186,296.3096,98.8534,261.2842,0,U,56956,999,11585,.32421E-3,.6622E-4,0
ION SCV-011,2023-084AB,2026-06-10T12:30:27.328896,15.28781375,.0008336,98.1382,348.1837,65.9915,294.2195,0,U,56957,999,16479,.17446E-3,.4796E-4,0
GHOST-3,2023-084AC,2026-06-10T10:33:18.990432,15.47662314,.0005687,97.6202,309.6512,322.3309,37.7542,0,U,56958,999,16697,.31863E-3,.16382E-3,0
TOMORROW-R2,2023-084AG,2026-06-10T04:29:25.172160,16.02124152,.0007439,97.6021,324.4187,245.7552,114.2950,0,U,56962,999,16793,.71086E-3,.407347E-2,.75186E-4
AFR-1,2023-084AJ,2026-06-10T13:19:10.265088,15.28499215,.0010559,97.6260,298.0872,10.7105,349.4357,0,U,56964,999,16621,.14464E-3,.3937E-4,0
METEOR-M2 3,2023-091A,2026-06-10T13:32:16.196640,14.24046205,.0003983,98.6091,216.6776,172.7447,187.3791,0,U,57166,999,15357,.1233E-4,-.15E-6,0
UMKA 1 (RS40S),2023-091G,2026-06-10T10:45:37.167840,15.20739099,.0013941,97.5057,220.1716,138.7609,221.4682,0,U,57172,999,16298,.26679E-3,.5816E-4,0
2023-091H,2023-091H,2026-06-10T10:34:01.462080,15.28487566,.0011132,97.5055,224.5780,133.5400,226.6766,0,U,57173,999,16327,.384E-3,.10593E-3,0
2023-091J,2023-091J,2026-06-10T10:43:02.988768,15.13878957,.0013745,97.5061,214.6391,164.7817,195.3831,0,U,57174,999,16261,.17521E-3,.311E-4,0
CUBEBEL 2 (EU11S),2023-091K,2026-06-10T10:38:29.641632,15.28987107,.0011142,97.5058,224.6006,135.1242,225.0900,0,U,57175,999,16327,.41808E-3,.1172E-3,0
SITRO-AIS 5 (KATYS),2023-091L,2026-06-10T09:30:42.892992,15.29298638,.0012744,97.5066,225.2316,124.4341,235.8105,0,U,57176,999,16330,.41058E-3,.11625E-3,0
ZORKIY-2M 1,2023-091M,2026-06-10T12:01:16.954752,15.20814806,.0014551,97.5097,220.4875,136.1264,224.1129,0,U,57177,999,16298,.29567E-3,.6469E-4,0
CUBESX-HSE 3 (RS42S),2023-091N,2026-06-10T10:37:09.186816,15.31043247,.0012154,97.5097,226.9450,115.3998,244.8502,0,U,57178,999,16339,.41201E-3,.12311E-3,0
MONITOR-3 (RS58S),2023-091Q,2026-06-10T10:51:05.854176,15.27704917,.0013059,97.5090,224.8493,121.5687,238.6829,0,U,57180,999,16326,.3866E-3,.1042E-3,0
MONITOR-4 (RS57S),2023-091S,2026-06-10T11:55:48.243360,15.27797175,.0013068,97.5083,224.8653,121.8033,238.4481,0,U,57182,999,16327,.32754E-3,.8839E-4,0
MONITOR-2 (RS39S),2023-091U,2026-06-10T11:04:05.792160,15.18846682,.0012486,97.5079,219.7876,131.7104,228.5200,0,U,57184,999,16293,.21259E-3,.4368E-4,0
SVYATOBOR 1 (RS60S),2023-091X,2026-06-10T10:32:02.610240,15.26498870,.0010904,97.5095,225.2188,114.6692,245.5683,0,U,57187,999,16328,.31231E-3,.8092E-4,0
HORS 1,2023-091Y,2026-06-10T11:46:16.428288,15.26602940,.0010366,97.5073,225.0340,114.1508,246.0815,0,U,57188,999,16329,.29299E-3,.7609E-4,0
VIZARD-METEO (RS38S),2023-091Z,2026-06-10T10:29:35.584224,15.35809158,.0008613,97.5096,230.7880,97.7678,262.4543,0,U,57189,999,16365,.4433E-3,.15392E-3,0
